NORAD_CAT_ID,OBJECT_NAME,OBJECT_TYPE,EPOCH,MEAN_MOTION,ECCENTRICITY,INCLINATION,RA_OF_ASC_NODE,ARG_OF_PERICENTER,MEAN_ANOMALY,BSTAR,MEAN_MOTION_DOT,MEAN_MOTION_DDOT,TLE_LINE0,TLE_LINE1,TLE_LINE2,SEMIMAJOR_AXIS,PERIOD,APOGEE,PERIGEE,DECAYED
49767.0,STARLINK-3192,PAYLOAD,2022-04-21 22:00:00,15.08848162,0.0001598,53.2217,23.7382,49.9168,344.6368,-0.0020189,-0.00032282,0.0,0 STARLINK-3192,1 49767U 21115AV  22111.91667824 -.00032282  00000-0 -20189-2 0  9994,2 49767  53.2217  23.7382 0001598  49.9168 344.6368 15.08848162  3594,6917.855,95.437,540.826,538.615,0.0
49767.0,STARLINK-3192,PAYLOAD,2022-04-22 14:00:01,15.08833676,0.0001568,53.2214,20.7447,53.701,4.0434,0.00062234,9.629e-05,0.0,0 STARLINK-3192,1 49767U 21115AV  22112.58334491  .00009629  00000-0  62234-3 0  9994,2 49767  53.2214  20.7447 0001568  53.7010   4.0434 15.08833676  3603,6917.9,95.438,540.849,538.68,0.0
49767.0,STARLINK-3192,PAYLOAD,2022-04-22 16:00:00,15.08834325,0.0001587,53.2214,20.3705,55.90600000000001,94.7365,0.00060916,9.419e-05,0.0,0 STARLINK-3192,1 49767U 21115AV  22112.66667824  .00009419  00000-0  60916-3 0  9994,2 49767  53.2214  20.3705 0001587  55.9060  94.7365 15.08834325 22866,6917.898,95.438,540.861,538.665,0.0
49767.0,STARLINK-3192,PAYLOAD,2022-04-23 14:00:01,15.08830716,0.0001559,53.2211,16.2559,54.738,37.7832,0.00085291,0.00013309,0.0,0 STARLINK-3192,1 49767U 21115AV  22113.58334491  .00013309  00000-0  85291-3 0  9993,2 49767  53.2211  16.2559 0001559  54.7380  37.7832 15.08830716 23008,6917.909000000002,95.438,540.852,538.695,0.0
49767.0,STARLINK-3192,PAYLOAD,2022-04-24 14:00:01,15.08814803,0.0001599,53.2207,11.7672,56.7268,70.5963,0.0030214,0.00048093,0.0,0 STARLINK-3192,1 49767U 21115AV  22114.58334491  .00048093  00000-0  30214-2 0  9996,2 49767  53.2207  11.7672 0001599  56.7268  70.5963 15.08814803  3568,6917.956999999999,95.439,540.929,538.716,0.0
49767.0,STARLINK-3192,PAYLOAD,2022-04-24 22:00:00,15.08861577,0.0001727,53.2207,10.2723,54.57100000000001,84.3325,-0.003799,-0.00060279,0.0,0 STARLINK-3192,1 49767U 21115AV  22114.91667824 -.00060279  00000-0 -37990-2 0  9992,2 49767  53.2207  10.2723 0001727  54.5710  84.3325 15.08861577 23208,6917.814,95.436,540.874,538.485,0.0
49767.0,STARLINK-3192,PAYLOAD,2022-04-25 14:00:01,15.08794497,0.00017,53.2206,7.2785,58.0632,104.0271,0.0034739,0.00055365,0.0,0 STARLINK-3192,1 49767U 21115AV  22115.58334491  .00055365  00000-0  34739-2 0  9993,2 49767  53.2206   7.2785 0001700  58.0632 104.0271 15.08794497 23301,6918.019,95.44,541.061,538.7080000000002,0.0
49767.0,STARLINK-3192,PAYLOAD,2022-04-25 22:00:00,15.0883729,0.0001829,53.2208,5.7837,55.5563,118.098,-0.00037664,-6.277e-05,0.0,0 STARLINK-3192,1 49767U 21115AV  22115.91667824 -.00006277  00000-0 -37664-3 0  9990,2 49767  53.2208   5.7837 0001829  55.5563 118.0980 15.08837290  3614,6917.889,95.438,541.019,538.488,0.0
49767.0,STARLINK-3192,PAYLOAD,2022-04-26 06:00:00,15.08857995,0.0001839,53.2207,4.2877,51.7039,133.5343,-0.0014073,-0.00022627,0.0,0 STARLINK-3192,1 49767U 21115AV  22116.25001157 -.00022627  00000-0 -14073-2 0  9994,2 49767  53.2207   4.2877 0001839  51.7039 133.5343 15.08857995 23406,6917.825,95.436,540.9630000000002,538.418,0.0
49767.0,STARLINK-3192,PAYLOAD,2022-04-26 14:00:01,15.08815579,0.0001648,53.2208,2.7898,56.4695,140.4519,0.0032212,0.00051316,0.0,0 STARLINK-3192,1 49767U 21115AV  22116.58335648  .00051316  00000-0  32212-2 0  9995,2 49767  53.2208   2.7898 0001648  56.4695 140.4519 15.08815579  3593,6917.955,95.439,540.96,538.68,0.0
49767.0,STARLINK-3192,PAYLOAD,2022-04-26 22:00:00,15.08846252,0.0001764999999999,53.221,1.2952,51.681,156.7639,-0.0023327,-0.00037228,0.0,0 STARLINK-3192,1 49767U 21115AV  22116.91667824 -.00037228  00000-0 -23327-2 0  9991,2 49767  53.2210   1.2952 0001765  51.6810 156.7639 15.08846252  3569,6917.861,95.437,540.947,538.505,0.0
49767.0,STARLINK-3192,PAYLOAD,2022-04-27 06:00:00,15.08852133,0.000178,53.221,359.7990000000001,49.2773,170.7469,-0.0026381,-0.00042043,0.0,0 STARLINK-3192,1 49767U 21115AV  22117.25001157 -.00042043  00000-0 -26381-2 0  9994,2 49767  53.2210 359.7990 0001780  49.2773 170.7469 15.08852133 23564,6917.843000000003,95.437,540.94,538.477,0.0
49767.0,STARLINK-3192,PAYLOAD,2022-04-27 14:00:01,15.08799909,0.0001730999999999,53.2212,358.3012,56.8981,174.79,0.0033965,0.00054123,0.0,0 STARLINK-3192,1 49767U 21115AV  22117.58335648  .00054123  00000-0  33965-2 0  9991,2 49767  53.2212 358.3012 0001731  56.8981 174.7900 15.08799909  3593,6918.003000000002,95.44,541.065,538.67,0.0
49767.0,STARLINK-3192,PAYLOAD,2022-04-27 22:00:00,15.0883836,0.0001876,53.2214,356.8068,52.8517,190.3474,0.00019624,2.836e-05,0.0,0 STARLINK-3192,1 49767U 21115AV  22117.91667824  .00002836  00000-0  19624-3 0  9993,2 49767  53.2214 356.8068 0001876  52.8517 190.3474 15.08838360 23665,6917.885,95.438,541.048,538.453,0.0
49767.0,STARLINK-3192,PAYLOAD,2022-04-28 14:00:01,15.08845597,0.0001705,53.2215,353.8127,56.2096,210.2144,0.0008185,0.00012764,0.0,0 STARLINK-3192,1 49767U 21115AV  22118.58334491  .00012764  00000-0  81850-3 0  9999,2 49767  53.2215 353.8127 0001705  56.2096 210.2144 15.08845597 23767,6917.863,95.437,540.908,538.549,0.0
49767.0,STARLINK-3192,PAYLOAD,2022-04-29 06:00:00,15.08869113,0.0001723,53.2212,350.8216,48.5541,241.0817,-0.0047707,-0.00075479,0.0,0 STARLINK-3192,1 49767U 21115AV  22119.25001157 -.00075479  00000-0 -47707-2 0  9990,2 49767  53.2212 350.8216 0001723  48.5541 241.0817 15.08869113 23869,6917.791,95.436,540.8480000000002,538.464,0.0
49767.0,STARLINK-3192,PAYLOAD,2022-04-29 14:00:01,15.088030300000002,0.0001518,53.2214,349.324,53.2201,248.0145,0.0035609,0.00056783,0.0,0 STARLINK-3192,1 49767U 21115AV  22119.58334491  .00056783  00000-0  35609-2 0  9999,2 49767  53.2214 349.3240 0001518  53.2201 248.0145 15.08803030  3606,6917.993,95.44,540.909,538.808,0.0
49767.0,STARLINK-3192,PAYLOAD,2022-04-29 22:00:00,15.08838696,0.0001648,53.2213,347.8296,46.6268,266.1808,-0.0023097,-0.00036858,0.0,0 STARLINK-3192,1 49767U 21115AV  22119.91667824 -.00036858  00000-0 -23097-2 0  9996,2 49767  53.2213 347.8296 0001648  46.6268 266.1808 15.08838696 23966,6917.884,95.438,540.889,538.609,0.0
49767.0,STARLINK-3192,PAYLOAD,2022-04-30 14:00:01,15.0880698,0.0001526,53.2211,344.8354,54.0759,281.8936,0.0020849,0.00033019,0.0,0 STARLINK-3192,1 49767U 21115AV  22120.58334491  .00033019  00000-0  20849-2 0  9998,2 49767  53.2211 344.8354 0001526  54.0759 281.8936 15.08806980  3560,6917.981,95.44,540.9019999999998,538.7909999999998,0.0
49767.0,STARLINK-3192,PAYLOAD,2022-04-30 22:00:00,15.08822572,0.0001721999999999,53.2207,343.3411,49.167,298.3731,0.00055349,8.528e-05,0.0,0 STARLINK-3192,1 49767U 21115AV  22120.91667824  .00008528  00000-0  55349-3 0  9995,2 49767  53.2207 343.3411 0001722  49.1670 298.3731 15.08822572  3569,6917.934,95.439,540.99,538.607,0.0
49767.0,STARLINK-3192,PAYLOAD,2022-05-01 06:00:00,15.08851548,0.000168,53.2203,341.844,49.2331,309.8773,-0.0017736,-0.00028413,0.0,0 STARLINK-3192,1 49767U 21115AV  22121.25001157 -.00028413  00000-0 -17736-2 0  9998,2 49767  53.2203 341.8440 0001680  49.2331 309.8773 15.08851548 24166,6917.845,95.437,540.872,538.548,0.0
49767.0,STARLINK-3192,PAYLOAD,2022-05-01 14:00:01,15.08829533,0.0001625,53.2204,340.3468,57.7041,313.0053,0.00058614,9.05e-05,0.0,0 STARLINK-3192,1 49767U 21115AV  22121.58334491  .00009050  00000-0  58614-3 0  9999,2 49767  53.2204 340.3468 0001625  57.7041 313.0053 15.08829533  3582,6917.9119999999975,95.438,540.9019999999998,538.653,0.0
49767.0,STARLINK-3192,PAYLOAD,2022-05-01 22:00:01,15.08824156,0.0001834,53.2202,338.8523,52.8953,329.462,0.00050692,7.785e-05,0.0,0 STARLINK-3192,1 49767U 21115AV  22121.91668981  .00007785  00000-0  50692-3 0  9991,2 49767  53.2202 338.8523 0001834  52.8953 329.4620 15.08824156  3615,6917.929,95.439,541.063,538.525,0.0
49767.0,STARLINK-3192,PAYLOAD,2022-05-02 06:00:00,15.08850742,0.000179,53.2198,337.355,53.1029,340.7669,-0.0016236,-0.00026043,0.0,0 STARLINK-3192,1 49767U 21115AV  22122.25001157 -.00026043  00000-0 -16236-2 0  9990,2 49767  53.2198 337.3550 0001790  53.1029 340.7669 15.08850742 24311,6917.848000000001,95.437,540.951,538.474,0.0
49767.0,STARLINK-3192,PAYLOAD,2022-05-02 14:00:01,15.08842257,0.0001774999999999,53.2199,335.8579,60.2754,345.1904,-0.0007113,-0.00011591,0.0,0 STARLINK-3192,1 49767U 21115AV  22122.58334491 -.00011591  00000-0 -71130-3 0  9993,2 49767  53.2199 335.8579 0001775  60.2754 345.1904 15.08842257  3605,6917.873000000001,95.437,540.966,538.511,0.0
49767.0,STARLINK-3192,PAYLOAD,2022-05-02 22:00:01,15.08820156,0.000198,53.2198,334.3634,55.5492,1.5735,0.00070769,0.00010987,0.0,0 STARLINK-3192,1 49767U 21115AV  22122.91668981  .00010987  00000-0  70769-3 0  9997,2 49767  53.2198 334.3634 0001980  55.5492   1.5735 15.08820156  3614,6917.941,95.439,541.1759999999998,538.436,0.0
49767.0,STARLINK-3192,PAYLOAD,2022-05-03 06:00:00,15.08847901,0.0001913,53.2197,332.8659,55.7919,12.8413,-0.0014983,-0.0002406,0.0,0 STARLINK-3192,1 49767U 21115AV  22123.25001157 -.00024060  00000-0 -14983-2 0  9995,2 49767  53.2197 332.8659 0001913  55.7919  12.8413 15.08847901 24466,6917.856,95.437,541.045,538.398,0.0
49767.0,STARLINK-3192,PAYLOAD,2022-05-03 14:00:01,15.08839717,0.0001887,53.2198,331.3688,61.0699,19.1553,0.0015789,0.00024929,0.0,0 STARLINK-3192,1 49767U 21115AV  22123.58334491  .00024929  00000-0  15789-2 0  9998,2 49767  53.2198 331.3688 0001887  61.0699  19.1553 15.08839717  3578,6917.880999999999,95.438,541.052,538.441,0.0
49767.0,STARLINK-3192,PAYLOAD,2022-05-03 22:00:00,15.08855248,0.0002015,53.2199,329.8743,54.5568,37.2759,-0.00067949,-0.00011091,0.0,0 STARLINK-3192,1 49767U 21115AV  22123.91667824 -.00011091  00000-0 -67949-3 0  9998,2 49767  53.2199 329.8743 0002015  54.5568  37.2759 15.08855248 24567,6917.834,95.437,541.0930000000002,538.305,0.0
